GPS BIIA-10 (PRN 32)    
1 20959U 90103A   15339.84319061  .00000078  00000-0  00000-0 0  9996
2 20959  54.2491 187.2912 0113308   9.6021 350.6919  2.00566374183116
GPS BIIR-2  (PRN 13)    
1 24876U 97035A   15340.15647631 -.00000037  00000-0  00000+0 0  9997
2 24876  55.7290 249.1487 0044406 116.7925 243.7043  2.00562253134614
GPS BIIR-3  (PRN 11)    
1 25933U 99055A   15340.29771411 -.00000012  00000-0  00000+0 0  9998
2 25933  51.2779 102.1908 0160709  85.0599 300.1588  2.00566518118430
GPS BIIR-4  (PRN 20)    
1 26360U 00025A   15340.57177814  .00000091  00000-0  00000+0 0  9996
2 26360  53.0690 178.1868 0048107  72.9920 254.7994  2.00563313114133
GPS BIIR-5  (PRN 28)    
1 26407U 00040A   15340.40958318 -.00000062  00000-0  00000+0 0  9992
2 26407  56.6922   6.9212 0202137 265.9767 221.6694  2.00561077112808
GPS BIIR-6  (PRN 14)    
1 26605U 00071A   15340.54064811 -.00000029  00000-0  00000+0 0  9990
2 26605  55.2982 247.0763 0085621 249.0146 268.7717  2.00561234110406
GPS BIIR-7  (PRN 18)    
1 26690U 01004A   15340.36026707  .00000087  00000-0  00000+0 0  9996
2 26690  52.9983 181.1786 0165972 249.9002 230.7315  2.00566088108802
GPS BIIR-8  (PRN 16)    
1 27663U 03005A   15340.17237883 -.00000063  00000-0  00000+0 0  9993
2 27663  56.7688   6.6355 0081718  16.2813  64.6636  2.00564969 94169
GPS BIIR-9  (PRN 21)    
1 27704U 03010A   15340.13071078  .00000036  00000-0  00000+0 0  9992
2 27704  53.5823 121.4541 0229787 253.7852 117.1277  2.00558748 92964
GPS BIIR-10 (PRN 22)    
1 28129U 03058A   15340.24031405  .00000086  00000-0  00000+0 0  9993
2 28129  52.8744 181.2303 0082006 243.3047 115.9245  2.00563637 87667
GPS BIIR-11 (PRN 19)    
1 28190U 04009A   15340.27526494 -.00000068  00000-0  00000+0 0  9999
2 28190  55.6703  68.1083 0111595  37.1056 315.7825  2.00388573 85840
GPS BIIR-12 (PRN 23)    
1 28361U 04023A   15340.30425157 -.00000025  00000-0  00000+0 0  9996
2 28361  54.2631 242.7696 0104979 210.9759  29.7820  2.00552857 83926
GPS BIIR-13 (PRN 02)    
1 28474U 04045A   15340.30677742  .00000034  00000-0  00000+0 0  9993
2 28474  53.9757 120.6891 0152494 234.1340  10.4962  2.00562712 81299
GPS BIIRM-1 (PRN 17)    
1 28874U 05038A   15340.28711597 -.00000070  00000-0  00000+0 0  9995
2 28874  55.8382  65.2929 0109709 246.6972  89.2944  2.00572006 74691
GPS BIIRM-2 (PRN 31)    
1 29486U 06042A   15340.54576422 -.00000064  00000-0  00000+0 0  9999
2 29486  55.7605 304.5918 0084191 330.8163 114.7243  2.00566740 67416
GPS BIIRM-3 (PRN 12)    
1 29601U 06052A   15339.87253694 -.00000064  00000-0  00000+0 0  9996
2 29601  56.7389   5.5733 0054428  34.4956 325.9102  2.00576896 66316
GPS BIIRM-4 (PRN 15)    
1 32260U 07047A   15340.19196911 -.00000022  00000-0  00000+0 0  9995
2 32260  53.3931 239.6145 0077556  24.0097 336.4070  2.00552804 59701
GPS BIIRM-5 (PRN 29)    
1 32384U 07062A   15340.48764142 -.00000069  00000-0  00000+0 0  9999
2 32384  55.8904  65.8321 0010452 315.8334  31.9128  2.00566565 58436
GPS BIIRM-6 (PRN 07)    
1 32711U 08012A   15340.10261439 -.00000065  00000-0  00000+0 0  9995
2 32711  55.4826 304.1176 0091256 207.7855 151.7199  2.00562334 56622
GPS BIIRM-8 (PRN 05)    
1 35752U 09043A   15340.52564832  .00000091  00000-0  00000+0 0  9995
2 35752  54.2237 182.1651 0044596  24.7460 310.5414  2.00561295 46202
GPS BIIF-1  (PRN 25)    
1 36585U 10022A   15339.90856457 -.00000065  00000-0  00000-0 0  9999
2 36585  56.0720   2.7726 0046236  38.1029 316.1340  2.00573772 40440
GPS BIIF-2  (PRN 01)    
1 37753U 11036A   15340.40823633  .00000041  00000-0  00000+0 0  9992
2 37753  55.1960 123.0777 0047682  25.9583  54.2204  2.00565507 32135
GPS BIIF-3  (PRN 24)    
1 38833U 12053A   15340.28644203 -.00000067  00000-0  00000+0 0  9991
2 38833  54.5158 301.5791 0037966  14.1956 345.9042  2.00566882 23210
GPS BIIF-4  (PRN 27)    
1 39166U 13023A   15340.14445325 -.00000074  00000-0  00000+0 0  9996
2 39166  55.5477  62.4968 0027695  10.1038 349.9708  2.00559597 18738
GPS BIIF-5  (PRN 30)    
1 39533U 14008A   15340.14383762 -.00000066  00000-0  00000+0 0  9995
2 39533  54.6679 306.7866 0016734 187.7618 172.2084  2.00564585 13099
GPS BIIF-6  (PRN 06)    
1 39741U 14026A   15339.92315328  .00000043  00000-0  00000+0 0  9997
2 39741  55.1876 122.6124 0003179 226.3609 133.5979  2.00573018 11379
GPS BIIF-7  (PRN 09)    
1 40105U 14045A   15340.01564966 -.00000027  00000-0  00000+0 0  9993
2 40105  54.7804 242.3896 0002733 136.0243 224.0500  2.00562545  9829
GPS BIIF-8  (PRN 03)    
1 40294U 14068A   15340.37841574  .00000091  00000-0  00000+0 0  9999
2 40294  54.9605 182.7201 0004725 213.3913 146.6535  2.00578222  8052
GPS BIIF-9  (PRN 26)    
1 40534U 15013A   15340.02187981 -.00000067  00000-0  00000+0 0  9998
2 40534  55.0435   2.4279 0005992 319.7593  40.2458  2.00563740  5113
GPS BIIF-10  (PRN 08)   
1 40730U 15033A   15339.68448058 -.00000075  00000-0  00000-0 0  9993
2 40730  55.0843  62.4400 0018316 267.8934  91.9156  2.00570712  2866
GPS BIIF-11  (PRN 10)   
1 41019U 15062A   15339.39193380  .00000082  00000-0  00000+0 0  9995
2 41019  54.9865 182.5263 0008710 205.6679 154.3216  1.97373612   687
